[Satellite]
VERSION=1.1
NAME=STARLINK-5210
NICKNAME=STARLINK-5210
TLE1=1 54082U 22136AH  22321.58334491  .00095670  00000+0  67938-3 0  9992
TLE2=2 54082  53.2154   9.4565 0003780  10.5246 322.6069 15.73157553  1300
STATUS=0
